{"fetched_at":"2026-03-29T02:12:04Z","count":15717,"tles":[{"name":"GPS BIIRM-6 (PRN 07)","line1":"1 32711U 08012A   26086.37275070 -.00000009  00000+0  00000+0 0  9996","line2":"2 32711  54.4839 153.1942 0208278 246.5928 111.2592  2.00569963132116","category":"GPS"}]}